{
  "type": "FeatureCollection",
  "features": [
    {
      "type": "Feature",
      "properties": {
        "norad_id": 30073,
        "name": "FENGYUN 1C DEB",
        "group": "fengyun-1c-debris",
        "lat": 25.86383508062254,
        "lon": -49.91898799727487,
        "alt_km": 830.0641915852684,
        "timestamp": "2025-12-07T20:38:14.337546+00:00",
        "meta_object_name": "FENGYUN 1C DEB",
        "meta_object_id": "1999-025QA",
        "meta_epoch": "2025-12-07T03:53:00.255264",
        "meta_mean_motion": 14.18610309,
        "meta_eccentricity": 0.00540243,
        "meta_inclination": 99.4111,
        "meta_ra_of_asc_node": 313.9527,
        "meta_arg_of_pericenter": 296.5421,
        "meta_mean_anomaly": 126.0461,
        "meta_ephemeris_type": 0,
        "meta_classification_type": "U",
        "meta_norad_cat_id": 30073,
        "meta_element_set_no": 999,
        "meta_rev_at_epoch": 96846,
        "meta_bstar": 0.0026946187,
        "meta_mean_motion_dot": 5.618e-05,
        "meta_mean_motion_ddot": 0,
        "tle_line1": "1 30073U 99025QA  25341.16180851  .00005618  00000+0  26946-2 0  9991",
        "tle_line2": "2 30073  99.4111 313.9527 0054024 296.5421 126.0461 14.18610309968460"
      },
      "geometry": {
        "type": "Point",
        "coordinates": [
          -49.91898799727487,
          25.86383508062254
        ]
      }
    },
    {
      "type": "Feature",
      "properties": {
        "norad_id": 30074,
        "name": "FENGYUN 1C DEB",
        "group": "fengyun-1c-debris",
        "lat": -62.41011238731409,
        "lon": -149.919459379188,
        "alt_km": 842.180087321326,
        "timestamp": "2025-12-07T20:38:14.337556+00:00",
        "meta_object_name": "FENGYUN 1C DEB",
        "meta_object_id": "1999-025QB",
        "meta_epoch": "2025-12-05T23:18:03.892032",
        "meta_mean_motion": 14.12797864,
        "meta_eccentricity": 0.00976106,
        "meta_inclination": 99.1292,
        "meta_ra_of_asc_node": 46.0768,
        "meta_arg_of_pericenter": 170.5804,
        "meta_mean_anomaly": 189.7227,
        "meta_ephemeris_type": 0,
        "meta_classification_type": "U",
        "meta_norad_cat_id": 30074,
        "meta_element_set_no": 999,
        "meta_rev_at_epoch": 96566,
        "meta_bstar": 0.0027772932,
        "meta_mean_motion_dot": 5.356e-05,
        "meta_mean_motion_ddot": 0,
        "tle_line1": "1 30074U 99025QB  25339.97087838  .00005356  00000+0  27773-2 0  9997",
        "tle_line2": "2 30074  99.1292  46.0768 0097610 170.5804 189.7227 14.12797864965664"
      },
      "geometry": {
        "type": "Point",
        "coordinates": [
          -149.919459379188,
          -62.41011238731409
        ]
      }
    },
    {
      "type": "Feature",
      "properties": {
        "norad_id": 30075,
        "name": "FENGYUN 1C DEB",
        "group": "fengyun-1c-debris",
        "lat": -25.73894246315252,
        "lon": 36.68490020568017,
        "alt_km": 978.6046432496887,
        "timestamp": "2025-12-07T20:38:14.337565+00:00",
        "meta_object_name": "FENGYUN 1C DEB",
        "meta_object_id": "1999-025QC",
        "meta_epoch": "2025-12-07T01:56:25.478016",
        "meta_mean_motion": 13.92530269,
        "meta_eccentricity": 0.00908537,
        "meta_inclination": 99.3625,
        "meta_ra_of_asc_node": 31.3359,
        "meta_arg_of_pericenter": 192.3098,
        "meta_mean_anomaly": 197.7667,
        "meta_ephemeris_type": 0,
        "meta_classification_type": "U",
        "meta_norad_cat_id": 30075,
        "meta_element_set_no": 999,
        "meta_rev_at_epoch": 95986,
        "meta_bstar": 0.00033339113,
        "meta_mean_motion_dot": 3.99e-06,
        "meta_mean_motion_ddot": 0,
        "tle_line1": "1 30075U 99025QC  25341.08085044  .00000399  00000+0  33339-3 0  9998",
        "tle_line2": "2 30075  99.3625  31.3359 0090853 192.3098 197.7667 13.92530269959862"
      },
      "geometry": {
        "type": "Point",
        "coordinates": [
          36.68490020568017,
          -25.73894246315252
        ]
      }
    },
    {
      "type": "Feature",
      "properties": {
        "norad_id": 30076,
        "name": "FENGYUN 1C DEB",
        "group": "fengyun-1c-debris",
        "lat": -45.938450403938845,
        "lon": -21.589657008024055,
        "alt_km": 1098.7363654846804,
        "timestamp": "2025-12-07T20:38:14.337576+00:00",
        "meta_object_name": "FENGYUN 1C DEB",
        "meta_object_id": "1999-025QD",
        "meta_epoch": "2025-12-07T05:15:22.002624",
        "meta_mean_motion": 13.76285794,
        "meta_eccentricity": 0.01756005,
        "meta_inclination": 99.2374,
        "meta_ra_of_asc_node": 328.1079,
        "meta_arg_of_pericenter": 108.3808,
        "meta_mean_anomaly": 272.2434,
        "meta_ephemeris_type": 0,
        "meta_classification_type": "U",
        "meta_norad_cat_id": 30076,
        "meta_element_set_no": 999,
        "meta_rev_at_epoch": 94818,
        "meta_bstar": 0.00042025452,
        "meta_mean_motion_dot": 4.17e-06,
        "meta_mean_motion_ddot": 0,
        "tle_line1": "1 30076U 99025QD  25341.21900466  .00000417  00000+0  42025-3 0  9991",
        "tle_line2": "2 30076  99.2374 328.1079 0175600 108.3808 272.2434 13.76285794948185"
      },
      "geometry": {
        "type": "Point",
        "coordinates": [
          -21.589657008024055,
          -45.938450403938845
        ]
      }
    },
    {
      "type": "Feature",
      "properties": {
        "norad_id": 30077,
        "name": "FENGYUN 1C DEB",
        "group": "fengyun-1c-debris",
        "lat": 57.13437965921927,
        "lon": -16.135685335474115,
        "alt_km": 875.1068415859263,
        "timestamp": "2025-12-07T20:38:14.337586+00:00",
        "meta_object_name": "FENGYUN 1C DEB",
        "meta_object_id": "1999-025QE",
        "meta_epoch": "2025-12-07T06:46:57.821952",
        "meta_mean_motion": 14.07077507,
        "meta_eccentricity": 0.00204216,
        "meta_inclination": 98.7583,
        "meta_ra_of_asc_node": 357.1096,
        "meta_arg_of_pericenter": 280.3618,
        "meta_mean_anomaly": 95.1931,
        "meta_ephemeris_type": 0,
        "meta_classification_type": "U",
        "meta_norad_cat_id": 30077,
        "meta_element_set_no": 999,
        "meta_rev_at_epoch": 97036,
        "meta_bstar": 8.1641266e-05,
        "meta_mean_motion_dot": 9.4e-07,
        "meta_mean_motion_ddot": 0,
        "tle_line1": "1 30077U 99025QE  25341.28261368  .00000094  00000+0  81641-4 0  9999",
        "tle_line2": "2 30077  98.7583 357.1096 0020421 280.3618  95.1931 14.07077507970368"
      },
      "geometry": {
        "type": "Point",
        "coordinates": [
          -16.135685335474115,
          57.13437965921927
        ]
      }
    },
    {
      "type": "Feature",
      "properties": {
        "norad_id": 30078,
        "name": "FENGYUN 1C DEB",
        "group": "fengyun-1c-debris",
        "lat": 26.43726983220047,
        "lon": 52.2775232522133,
        "alt_km": 815.0951308933518,
        "timestamp": "2025-12-07T20:38:14.337595+00:00",
        "meta_object_name": "FENGYUN 1C DEB",
        "meta_object_id": "1999-025QF",
        "meta_epoch": "2025-12-07T03:47:30.355008",
        "meta_mean_motion": 14.23087123,
        "meta_eccentricity": 0.00525306,
        "meta_inclination": 98.8325,
        "meta_ra_of_asc_node": 56.0076,
        "meta_arg_of_pericenter": 296.7715,
        "meta_mean_anomaly": 95.6207,
        "meta_ephemeris_type": 0,
        "meta_classification_type": "U",
        "meta_norad_cat_id": 30078,
        "meta_element_set_no": 999,
        "meta_rev_at_epoch": 97034,
        "meta_bstar": 0.0020888225,
        "meta_mean_motion_dot": 4.737e-05,
        "meta_mean_motion_ddot": 0,
        "tle_line1": "1 30078U 99025QF  25341.15799022  .00004737  00000+0  20888-2 0  9991",
        "tle_line2": "2 30078  98.8325  56.0076 0052530 296.7715  95.6207 14.23087123970344"
      },
      "geometry": {
        "type": "Point",
        "coordinates": [
          52.2775232522133,
          26.43726983220047
        ]
      }
    },
    {
      "type": "Feature",
      "properties": {
        "norad_id": 30079,
        "name": "FENGYUN 1C DEB",
        "group": "fengyun-1c-debris",
        "lat": 25.686543331321396,
        "lon": -138.15949142982407,
        "alt_km": 947.5094329657159,
        "timestamp": "2025-12-07T20:38:14.337605+00:00",
        "meta_object_name": "FENGYUN 1C DEB",
        "meta_object_id": "1999-025QG",
        "meta_epoch": "2025-12-07T02:53:40.958880",
        "meta_mean_motion": 14.00789099,
        "meta_eccentricity": 0.00846763,
        "meta_inclination": 99.0364,
        "meta_ra_of_asc_node": 36.7197,
        "meta_arg_of_pericenter": 314.8417,
        "meta_mean_anomaly": 73.3705,
        "meta_ephemeris_type": 0,
        "meta_classification_type": "U",
        "meta_norad_cat_id": 30079,
        "meta_element_set_no": 999,
        "meta_rev_at_epoch": 96459,
        "meta_bstar": 0.00034162402,
        "meta_mean_motion_dot": 4.81e-06,
        "meta_mean_motion_ddot": 0,
        "tle_line1": "1 30079U 99025QG  25341.12061295  .00000481  00000+0  34162-3 0  9996",
        "tle_line2": "2 30079  99.0364  36.7197 0084676 314.8417  73.3705 14.00789099964599"
      },
      "geometry": {
        "type": "Point",
        "coordinates": [
          -138.15949142982407,
          25.686543331321396
        ]
      }
    }
  ]
}